[{"OBJECT_NAME":"OBJECT L","OBJECT_ID":"2023-085L","EPOCH":"2026-03-09T23:02:21.999840","MEAN_MOTION":15.29079976,"ECCENTRICITY":0.0005428,"INCLINATION":97.486,"RA_OF_ASC_NODE":178.8598,"ARG_OF_PERICENTER":50.8528,"MEAN_ANOMALY":309.3193,"EPHEMERIS_TYPE":0,"CLASSIFICATION_TYPE":"U","NORAD_CAT_ID":57014,"ELEMENT_SET_NO":999,"REV_AT_EPOCH":15144,"BSTAR":0.00063462603,"MEAN_MOTION_DOT":0.00017871,"MEAN_MOTION_DDOT":0},{"OBJECT_NAME":"STARLINK-34464","OBJECT_ID":"2025-139A","EPOCH":"2026-03-09T10:33:50.361408","MEAN_MOTION":15.30205407,"ECCENTRICITY":6.866e-5,"INCLINATION":53.1574,"RA_OF_ASC_NODE":128.3623,"ARG_OF_PERICENTER":92.5604,"MEAN_ANOMALY":267.5476,"EPHEMERIS_TYPE":0,"CLASSIFICATION_TYPE":"U","NORAD_CAT_ID":64664,"ELEMENT_SET_NO":999,"REV_AT_EPOCH":4024,"BSTAR":0.0007895388,"MEAN_MOTION_DOT":0.00023101,"MEAN_MOTION_DDOT":0}]
